sat18688
1 18688U 63014DM  20044.07963049 -.00000016  00000-0 -88812-2 0  9991
2 18688  87.3318  62.7304 0038079 287.2937 120.4172  8.65097588919136
